{"type": "FeatureCollection", "features": [ {"type": "Feature", "properties": {"norad_id": 17070, "name": "POLAR BEAR", "group": "nnss", "lat": 72.74325965255464, "lon": -174.87304071265322, "alt_km": 956.7105693945323, "timestamp": "2025-12-09T16:56:36.843274+00:00", "meta": {"OBJECT_NAME": "POLAR BEAR", "OBJECT_ID": "1986-088A", "EPOCH": "2025-12-09T11:40:55.884288", "MEAN_MOTION": 13.75249895, "ECCENTRICITY": 0.0040773, "INCLINATION": 89.6176, "RA_OF_ASC_NODE": 183.9039, "ARG_OF_PERICENTER": 128.6786, "MEAN_ANOMALY": 299.7884, "EPHEMERIS_TYPE": 0, "CLASSIFICATION_TYPE": "U", "NORAD_CAT_ID": 17070, "ELEMENT_SET_NO": 999, "REV_AT_EPOCH": 95934, "BSTAR": 0.00016163, "MEAN_MOTION_DOT": 1.67e-06, "MEAN_MOTION_DDOT": 0}, "tle": {"line1": "1 17070U 86088A   25343.48675792  .00000167  00000+0  16163-3 0  9993", "line2": "2 17070  89.6176 183.9039 0040773 128.6786 299.7884 13.75249895959346"}}, "geometry": {"type": "Point", "coordinates": [-174.87304071265322, 72.74325965255464]}}, {"type": "Feature", "properties": {"norad_id": 18361, "name": "OSCAR 27", "group": "nnss", "lat": -57.41637457772685, "lon": 79.7447197558788, "alt_km": 1071.3579975940165, "timestamp": "2025-12-09T16:56:36.843284+00:00", "meta": {"OBJECT_NAME": "OSCAR 27", "OBJECT_ID": "1987-080A", "EPOCH": "2025-12-09T08:18:05.430816", "MEAN_MOTION": 13.44905747, "ECCENTRICITY": 0.0102671, "INCLINATION": 90.3742, "RA_OF_ASC_NODE": 79.1454, "ARG_OF_PERICENTER": 233.6303, "MEAN_ANOMALY": 125.5339, "EPHEMERIS_TYPE": 0, "CLASSIFICATION_TYPE": "U", "NORAD_CAT_ID": 18361, "ELEMENT_SET_NO": 999, "REV_AT_EPOCH": 87511, "BSTAR": 0.00030933, "MEAN_MOTION_DOT": 1.95e-06, "MEAN_MOTION_DDOT": 0}, "tle": {"line1": "1 18361U 87080A   25343.34589619  .00000195  00000+0  30933-3 0  9999", "line2": "2 18361  90.3742  79.1454 0102671 233.6303 125.5339 13.44905747875117"}}, "geometry": {"type": "Point", "coordinates": [79.7447197558788, -57.41637457772685]}}, {"type": "Feature", "properties": {"norad_id": 18362, "name": "OSCAR 29", "group": "nnss", "lat": -40.29070494844063, "lon": 79.93595380841862, "alt_km": 1064.4294943108152, "timestamp": "2025-12-09T16:56:36.843294+00:00", "meta": {"OBJECT_NAME": "OSCAR 29", "OBJECT_ID": "1987-080B", "EPOCH": "2025-12-09T06:41:55.136832", "MEAN_MOTION": 13.44447552, "ECCENTRICITY": 0.0103778, "INCLINATION": 90.3754, "RA_OF_ASC_NODE": 79.6015, "ARG_OF_PERICENTER": 257.2227, "MEAN_ANOMALY": 156.6742, "EPHEMERIS_TYPE": 0, "CLASSIFICATION_TYPE": "U", "NORAD_CAT_ID": 18362, "ELEMENT_SET_NO": 999, "REV_AT_EPOCH": 87463, "BSTAR": 0.00028125, "MEAN_MOTION_DOT": 1.76e-06, "MEAN_MOTION_DDOT": 0}, "tle": {"line1": "1 18362U 87080B   25343.27911038  .00000176  00000+0  28125-3 0  9995", "line2": "2 18362  90.3754  79.6015 0103778 257.2227 156.6742 13.44447552874639"}}, "geometry": {"type": "Point", "coordinates": [79.93595380841862, -40.29070494844063]}}, {"type": "Feature", "properties": {"norad_id": 19070, "name": "OSCAR 23", "group": "nnss", "lat": -82.01796433714232, "lon": 18.593411946105547, "alt_km": 1158.9720601958588, "timestamp": "2025-12-09T16:56:36.843304+00:00", "meta": {"OBJECT_NAME": "OSCAR 23", "OBJECT_ID": "1988-033A", "EPOCH": "2025-12-09T08:22:52.576032", "MEAN_MOTION": 13.27786458, "ECCENTRICITY": 0.0189246, "INCLINATION": 90.3215, "RA_OF_ASC_NODE": 16.2875, "ARG_OF_PERICENTER": 189.3566, "MEAN_ANOMALY": 182.1255, "EPHEMERIS_TYPE": 0, "CLASSIFICATION_TYPE": "U", "NORAD_CAT_ID": 19070, "ELEMENT_SET_NO": 999, "REV_AT_EPOCH": 82208, "BSTAR": 0.00020383, "MEAN_MOTION_DOT": 1.1e-06, "MEAN_MOTION_DDOT": 0}, "tle": {"line1": "1 19070U 88033A   25343.34921963  .00000110  00000+0  20383-3 0  9993", "line2": "2 19070  90.3215  16.2875 0189246 189.3566 182.1255 13.27786458822081"}}, "geometry": {"type": "Point", "coordinates": [18.593411946105547, -82.01796433714232]}}, {"type": "Feature", "properties": {"norad_id": 19071, "name": "OSCAR 32", "group": "nnss", "lat": 23.190817525508905, "lon": 16.292432952889378, "alt_km": 1278.4540902157905, "timestamp": "2025-12-09T16:56:36.843314+00:00", "meta": {"OBJECT_NAME": "OSCAR 32", "OBJECT_ID": "1988-033B", "EPOCH": "2025-12-09T12:03:27.411840", "MEAN_MOTION": 13.2795343, "ECCENTRICITY": 0.0188095, "INCLINATION": 90.322, "RA_OF_ASC_NODE": 16.4241, "ARG_OF_PERICENTER": 175.7825, "MEAN_ANOMALY": 315.8544, "EPHEMERIS_TYPE": 0, "CLASSIFICATION_TYPE": "U", "NORAD_CAT_ID": 19071, "ELEMENT_SET_NO": 999, "REV_AT_EPOCH": 82222, "BSTAR": 0.00020819, "MEAN_MOTION_DOT": 1.12e-06, "MEAN_MOTION_DDOT": 0}, "tle": {"line1": "1 19071U 88033B   25343.50240060  .00000112  00000+0  20819-3 0  9990", "line2": "2 19071  90.3220  16.4241 0188095 175.7825 315.8544 13.27953430822223"}}, "geometry": {"type": "Point", "coordinates": [16.292432952889378, 23.190817525508905]}}, {"type": "Feature", "properties": {"norad_id": 19223, "name": "NOVA 2", "group": "nnss", "lat": -84.07381854485416, "lon": 78.15179586467033, "alt_km": 1188.6014188115087, "timestamp": "2025-12-09T16:56:36.843324+00:00", "meta": {"OBJECT_NAME": "NOVA 2", "OBJECT_ID": "1988-052A", "EPOCH": "2025-12-09T11:58:35.893056", "MEAN_MOTION": 13.22935434, "ECCENTRICITY": 0.003086, "INCLINATION": 89.9871, "RA_OF_ASC_NODE": 78.2764, "ARG_OF_PERICENTER": 25.6927, "MEAN_ANOMALY": 345.5119, "EPHEMERIS_TYPE": 0, "CLASSIFICATION_TYPE": "U", "NORAD_CAT_ID": 19223, "ELEMENT_SET_NO": 999, "REV_AT_EPOCH": 80905, "BSTAR": 0.00022127, "MEAN_MOTION_DOT": 1.02e-06, "MEAN_MOTION_DDOT": 0}, "tle": {"line1": "1 19223U 88052A   25343.49902654  .00000102  00000+0  22127-3 0  9995", "line2": "2 19223  89.9871  78.2764 0030860  25.6927 345.5119 13.22935434809059"}}, "geometry": {"type": "Point", "coordinates": [78.15179586467033, -84.07381854485416]}}, {"type": "Feature", "properties": {"norad_id": 19419, "name": "OSCAR 25", "group": "nnss", "lat": 43.13482561280446, "lon": -159.73301774701213, "alt_km": 1128.4489894494454, "timestamp": "2025-12-09T16:56:36.843334+00:00", "meta": {"OBJECT_NAME": "OSCAR 25", "OBJECT_ID": "1988-074A", "EPOCH": "2025-12-09T04:03:49.083840", "MEAN_MOTION": 13.42622336, "ECCENTRICITY": 0.00943128, "INCLINATION": 90.0349, "RA_OF_ASC_NODE": 20.2324, "ARG_OF_PERICENTER": 256.2044, "MEAN_ANOMALY": 169.1401, "EPHEMERIS_TYPE": 0, "CLASSIFICATION_TYPE": "U", "NORAD_CAT_ID": 19419, "ELEMENT_SET_NO": 999, "REV_AT_EPOCH": 82592, "BSTAR": 0.00022175598, "MEAN_MOTION_DOT": 1.37e-06, "MEAN_MOTION_DDOT": 0}, "tle": {"line1": "1 19419U 88074A   25343.16931810  .00000137  00000+0  22176-3 0  9998", "line2": "2 19419  90.0349  20.2324 0094312 256.2044 169.1401 13.42622336825926"}}, "geometry": {"type": "Point", "coordinates": [-159.73301774701213, 43.13482561280446]}}, {"type": "Feature", "properties": {"norad_id": 19420, "name": "OSCAR 31", "group": "nnss", "lat": 22.604663031960573, "lon": 20.56844756629025, "alt_km": 1147.0350575294988, "timestamp": "2025-12-09T16:56:36.843345+00:00", "meta": {"OBJECT_NAME": "OSCAR 31", "OBJECT_ID": "1988-074B", "EPOCH": "2025-12-09T12:06:07.808256", "MEAN_MOTION": 13.42583896, "ECCENTRICITY": 0.0092604, "INCLINATION": 90.0367, "RA_OF_ASC_NODE": 20.583, "ARG_OF_PERICENTER": 249.3335, "MEAN_ANOMALY": 238.1831, "EPHEMERIS_TYPE": 0, "CLASSIFICATION_TYPE": "U", "NORAD_CAT_ID": 19420, "ELEMENT_SET_NO": 999, "REV_AT_EPOCH": 82607, "BSTAR": 0.00020451, "MEAN_MOTION_DOT": 1.27e-06, "MEAN_MOTION_DDOT": 0}, "tle": {"line1": "1 19420U 88074B   25343.50425704  .00000127  00000+0  20451-3 0  9991", "line2": "2 19420  90.0367  20.5830 0092604 249.3335 238.1831 13.42583896826079"}}, "geometry": {"type": "Point", "coordinates": [20.56844756629025, 22.604663031960573]}}]}